NORAD_CAT_ID,OBJECT_NAME,OBJECT_TYPE,EPOCH,MEAN_MOTION,ECCENTRICITY,INCLINATION,RA_OF_ASC_NODE,ARG_OF_PERICENTER,MEAN_ANOMALY,BSTAR,MEAN_MOTION_DOT,MEAN_MOTION_DDOT,TLE_LINE0,TLE_LINE1,TLE_LINE2,SEMIMAJOR_AXIS,PERIOD,APOGEE,PERIGEE,DECAYED
50816.0,STARLINK-3342,PAYLOAD,2022-06-12 18:02:08,15.08836881,0.0002335,53.2163,181.0637,44.9625,315.1556,8.7266e-05,1.101e-05,0.0,0 STARLINK-3342,1 50816U 22001P   22163.75148627  .00001101  00000-0  87266-4 0  9995,2 50816  53.2163 181.0637 0002335  44.9625 315.1556 15.08836881 24191,6917.89,95.438,541.37,538.14,0.0
50816.0,STARLINK-3342,PAYLOAD,2022-06-13 05:09:50,15.08841341,0.0002338,53.2163,178.982,45.6476,314.4708,9.2552e-05,1.185e-05,0.0,0 STARLINK-3342,1 50816U 22001P   22164.21516453  .00001185  00000-0  92552-4 0  9999,2 50816  53.2163 178.9820 0002338  45.6476 314.4708 15.08841341 25543,6917.876,95.437,541.359,538.124,0.0
50816.0,STARLINK-3342,PAYLOAD,2022-06-13 09:55:59,15.08842345,0.0002357,53.2163,178.0899,46.0172,314.1014,9.8173e-05,1.275e-05,0.0,0 STARLINK-3342,1 50816U 22001P   22164.41388391  .00001275  00000-0  98173-4 0  9994,2 50816  53.2163 178.0899 0002357  46.0172 314.1014 15.08842345 24292,6917.873000000001,95.437,541.369,538.1080000000002,0.0
50816.0,STARLINK-3342,PAYLOAD,2022-06-13 17:52:55,15.08844828,0.0002387,53.2164,176.6031,46.2669,313.8521,0.00011105,1.4800000000000002e-05,0.0,0 STARLINK-3342,1 50816U 22001P   22164.74508153  .00001480  00000-0  11105-3 0  9997,2 50816  53.2164 176.6031 0002387  46.2669 313.8521 15.08844828 24344,6917.866,95.437,541.382,538.0790000000002,0.0
50816.0,STARLINK-3342,PAYLOAD,2022-06-14 09:46:46,15.08849755,0.000239,53.2164,173.6296,47.4391,312.6803,0.00012156,1.647e-05,0.0,0 STARLINK-3342,1 50816U 22001P   22165.40747798  .00001647  00000-0  12156-3 0  9993,2 50816  53.2164 173.6296 0002390  47.4391 312.6803 15.08849755 25720,6917.851,95.437,541.369,538.062,0.0
50816.0,STARLINK-3342,PAYLOAD,2022-06-14 17:43:42,15.08837601,0.0002343,53.2165,172.1428,45.9075,314.2109,1.5475e-05,-4.2e-07,0.0,0 STARLINK-3342,1 50816U 22001P   22165.73868785 -.00000042  00000-0  15475-4 0  9996,2 50816  53.2165 172.1428 0002343  45.9075 314.2109 15.08837601 25771,6917.888000000001,95.438,541.374,538.132,0.0
50816.0,STARLINK-3342,PAYLOAD,2022-06-15 09:37:33,15.08840337,0.000242,53.2163,169.1686,47.8077,312.312,1.7652e-05,-7e-08,0.0,0 STARLINK-3342,1 50816U 22001P   22166.40108705 -.00000007  00000-0  17652-4 0  9990,2 50816  53.2163 169.1686 0002420  47.8077 312.3120 15.08840337 24591,6917.879,95.438,541.418,538.07,0.0
50816.0,STARLINK-3342,PAYLOAD,2022-06-15 17:34:29,15.08843439,0.0002388,53.2162,167.68200000000004,47.5925,312.5269,3.8373e-05,3.22e-06,0.0,0 STARLINK-3342,1 50816U 22001P   22166.73228452  .00000322  00000-0  38373-4 0  9990,2 50816  53.2162 167.6820 0002388  47.5925 312.5269 15.08843439 24643,6917.87,95.437,541.387,538.0830000000002,0.0
50816.0,STARLINK-3342,PAYLOAD,2022-06-15 23:56:01,15.08844488,0.0002396,53.2163,166.4922,48.2144,311.9053,5.024600000000001e-05,5.11e-06,0.0,0 STARLINK-3342,1 50816U 22001P   22166.99724373  .00000511  00000-0  50246-4 0  9994,2 50816  53.2163 166.4922 0002396  48.2144 311.9053 15.08844488 24687,6917.8669999999975,95.437,541.389,538.0740000000002,0.0
50816.0,STARLINK-3342,PAYLOAD,2022-06-19 07:25:18,15.08845723,0.0002566999999999,53.2163,151.6241,52.2305,307.8919,4.4649e-05,4.22e-06,0.0,0 STARLINK-3342,1 50816U 22001P   22170.30924291  .00000422  00000-0  44649-4 0  9996,2 50816  53.2163 151.6241 0002567  52.2305 307.8919 15.08845723 25185,6917.863,95.437,541.504,537.952,0.0
50816.0,STARLINK-3342,PAYLOAD,2022-06-19 15:22:14,15.08846016,0.0002578,53.2164,150.1372,52.6724,307.4503,7.979e-05,9.82e-06,0.0,0 STARLINK-3342,1 50816U 22001P   22170.64044079  .00000982  00000-0  79790-4 0  9996,2 50816  53.2164 150.1372 0002578  52.6724 307.4503 15.08846016 25233,6917.861999999999,95.437,541.51,537.944,0.0
50816.0,STARLINK-3342,PAYLOAD,2022-06-20 02:29:56,15.08833935,0.0002552,53.2166,148.0557,52.4615,307.6608,4.426600000000001e-05,4.16e-06,0.0,0 STARLINK-3342,1 50816U 22001P   22171.10413046  .00000416  00000-0  44266-4 0  9994,2 50816  53.2166 148.0557 0002552  52.4615 307.6608 15.08833935 26588,6917.899,95.438,541.529,537.998,0.0
50816.0,STARLINK-3342,PAYLOAD,2022-06-20 07:16:06,15.08833357,0.0002568,53.2166,147.1636,52.37600000000001,307.7465,3.2698000000000004e-05,2.32e-06,0.0,0 STARLINK-3342,1 50816U 22001P   22171.30285175  .00000232  00000-0  32698-4 0  9998,2 50816  53.2166 147.1636 0002568  52.3760 307.7465 15.08833357 25335,6917.901,95.438,541.5419999999998,537.989,0.0
50816.0,STARLINK-3342,PAYLOAD,2022-06-20 15:13:01,15.08837446,0.0002582,53.2167,145.6768,52.7797,307.3431,5.254e-05,5.48e-06,0.0,0 STARLINK-3342,1 50816U 22001P   22171.63404942  .00000548  00000-0  52540-4 0  9997,2 50816  53.2167 145.6768 0002582  52.7797 307.3431 15.08837446 25382,6917.888000000001,95.438,541.539,537.967,0.0
50816.0,STARLINK-3342,PAYLOAD,2022-06-21 02:20:45,15.08824162,0.0002546,53.217,143.5959,55.1796,304.9435,-9.4415e-05,-1.7899999999999998e-05,0.0,0 STARLINK-3342,1 50816U 22001P   22172.09774407 -.00001790  00000-0 -94415-4 0  9993,2 50816  53.2170 143.5959 0002546  55.1796 304.9435 15.08824162 26739,6917.929,95.439,541.555,538.0319999999998,0.0
50816.0,STARLINK-3342,PAYLOAD,2022-06-21 07:06:54,15.08826863,0.0002566999999999,53.217,142.7035,54.5299,305.5933,-8.7893e-05,-1.687e-05,0.0,0 STARLINK-3342,1 50816U 22001P   22172.29646369 -.00001687  00000-0 -87893-4 0  9997,2 50816  53.2170 142.7035 0002567  54.5299 305.5933 15.08826863 25480,6917.920999999999,95.438,541.561,538.01,0.0
50816.0,STARLINK-3342,PAYLOAD,2022-06-21 21:25:22,15.08827651,0.0002418,53.2166,140.0267,52.649,307.4722,-2.476e-05,-6.82e-06,0.0,0 STARLINK-3342,1 50816U 22001P   22172.89262443 -.00000682  00000-0 -24760-4 0  9998,2 50816  53.2166 140.0267 0002418  52.6490 307.4722 15.08827651 26855,6917.918000000002,95.438,541.456,538.11,0.0
50816.0,STARLINK-3342,PAYLOAD,2022-06-22 02:11:32,15.08830841,0.0002452,53.2168,139.1347,53.034,307.0876,1.6241e-07,-2.86e-06,0.0,0 STARLINK-3342,1 50816U 22001P   22173.09134318 -.00000286  00000-0  16241-6 0  9996,2 50816  53.2168 139.1347 0002452  53.0340 307.0876 15.08830841 25605,6917.908,95.438,541.47,538.077,0.0
50816.0,STARLINK-3342,PAYLOAD,2022-06-22 14:54:37,15.0883251,0.0002475,53.217,136.756,54.7038,305.4186,5.1956e-05,5.38e-06,0.0,0 STARLINK-3342,1 50816U 22001P   22173.62126386  .00000538  00000-0  51956-4 0  9990,2 50816  53.2170 136.7560 0002475  54.7038 305.4186 15.08832510 26966,6917.903,95.438,541.48,538.056,0.0
50816.0,STARLINK-3342,PAYLOAD,2022-06-23 03:37:42,15.08833927,0.0002524,53.2171,134.3772,54.812,305.3109,0.00017112,2.436e-05,0.0,0 STARLINK-3342,1 50816U 22001P   22174.15118187  .00002436  00000-0  17112-3 0  9993,2 50816  53.2171 134.3772 0002524  54.8120 305.3109 15.08833927 25768,6917.899,95.438,541.51,538.018,0.0
50816.0,STARLINK-3342,PAYLOAD,2022-06-23 14:45:23,15.08841489,0.0002596,53.2173,132.2962,55.2443,304.8794,0.00017767,2.541e-05,0.0,0 STARLINK-3342,1 50816U 22001P   22174.61485784  .00002541  00000-0  17767-3 0  9997,2 50816  53.2173 132.2962 0002596  55.2443 304.8794 15.08841489 27117,6917.876,95.437,541.5369999999998,537.945,0.0
50816.0,STARLINK-3342,PAYLOAD,2022-06-24 03:28:28,15.08847057,0.000263,53.2174,129.9176,55.6481,304.4759,0.00016037,2.265e-05,0.0,0 STARLINK-3342,1 50816U 22001P   22175.14477365  .00002265  00000-0  16037-3 0  9994,2 50816  53.2174 129.9176 0002630  55.6481 304.4759 15.08847057 25913,6917.859,95.437,541.543,537.904,0.0
50816.0,STARLINK-3342,PAYLOAD,2022-06-24 19:22:20,15.08842147,0.0002581,53.217,126.9438,54.7317,305.3916,2.0385e-05,3.6e-07,0.0,0 STARLINK-3342,1 50816U 22001P   22175.80717928  .00000036  00000-0  20385-4 0  9995,2 50816  53.2170 126.9438 0002581  54.7317 305.3916 15.08842147 27293,6917.874,95.437,541.524,537.953,0.0
50816.0,STARLINK-3342,PAYLOAD,2022-06-25 03:19:15,15.08848028,0.0002562,53.2171,125.4564,56.6318,303.4919,5.923600000000003e-05,6.55e-06,0.0,0 STARLINK-3342,1 50816U 22001P   22176.13837262  .00000655  00000-0  59236-4 0  9990,2 50816  53.2171 125.4564 0002562  56.6318 303.4919 15.08848028 27341,6917.856,95.437,541.493,537.948,0.0
50816.0,STARLINK-3342,PAYLOAD,2022-06-25 06:30:01,15.08850582,0.0002576,53.2171,124.8615,55.8575,304.2661,4.108e-05,3.66e-06,0.0,0 STARLINK-3342,1 50816U 22001P   22176.27085087  .00000366  00000-0  41080-4 0  9992,2 50816  53.2171 124.8615 0002576  55.8575 304.2661 15.08850582 26083,6917.848000000001,95.437,541.495,537.931,0.0
50816.0,STARLINK-3342,PAYLOAD,2022-06-25 19:13:07,15.08844693,0.0002609,53.2169,122.4833,57.6539,302.4705,-6.5874e-05,-1.337e-05,0.0,0 STARLINK-3342,1 50816U 22001P   22176.80077610 -.00001337  00000-0 -65874-4 0  9992,2 50816  53.2169 122.4833 0002609  57.6539 302.4705 15.08844693 27449,6917.866,95.437,541.536,537.9259999999998,0.0
50816.0,STARLINK-3342,PAYLOAD,2022-06-26 12:42:21,15.08837999,0.0002588,53.2169,119.2121,57.8644,302.2599,1.5849e-05,-3.6e-07,0.0,0 STARLINK-3342,1 50816U 22001P   22177.52941526 -.00000036  00000-0  15849-4 0  9999,2 50816  53.2169 119.2121 0002588  57.8644 302.2599 15.08837999 26278,6917.887,95.438,541.5419999999998,537.961,0.0
50816.0,STARLINK-3342,PAYLOAD,2022-06-26 19:03:53,15.08844535,0.0002704,53.2168,118.023,57.9327,302.1927,-8.287899999999999e-05,-1.608e-05,0.0,0 STARLINK-3342,1 50816U 22001P   22177.79437496 -.00001608  00000-0 -82879-4 0  9998,2 50816  53.2168 118.0230 0002704  57.9327 302.1927 15.08844535 26317,6917.8669999999975,95.437,541.602,537.861,0.0
50816.0,STARLINK-3342,PAYLOAD,2022-06-27 03:00:49,15.08840037,0.0002534,53.2168,116.5365,59.1384,300.9857,-1.3573e-05,-5.04e-06,0.0,0 STARLINK-3342,1 50816U 22001P   22178.12557496 -.00000504  00000-0 -13573-4 0  9998,2 50816  53.2168 116.5365 0002534  59.1384 300.9857 15.08840037 27645,6917.88,95.438,541.498,537.992,0.0
